H1 CPF  1  DLR 2021 10 13 10  7862 technosat            
H2  1704205 6203    42829 2021 10 13 00 00 00 2021 10 20 00 00 00    60 1 1  0 0 0
H9
10 0 59500  36000.000000  0       4846478.069      -2622282.794       4261325.567
10 0 59500  36060.000000  0       4547921.241      -2571286.782       4605562.053
10 0 59500  36120.000000  0       4230676.640      -2506744.677       4930220.887
10 0 59500  36180.000000  0       3896199.704      -2428770.763       5233920.111
10 0 59500  36240.000000  0       3546017.797      -2337549.325       5515367.070
10 0 59500  36300.000000  0       3181723.019      -2233334.386       5773363.854
10 0 59500  36360.000000  0       2804964.823      -2116449.117       6006812.339
10 0 59500  36420.000000  0       2417442.368      -1987284.911       6214718.831
10 0 59500  36480.000000  0       2020896.676      -1846300.116       6396198.199
10 0 59500  36540.000000  0       1617102.705      -1694018.404       6550477.573
10 0 59500  36600.000000  0       1207861.235      -1531026.824       6676899.599
10 0 59500  36660.000000  0        794990.711      -1357973.504       6774925.110
10 0 59500  36720.000000  0        380319.100      -1175565.033       6844135.368
10 0 59500  36780.000000  0        -34324.285       -984563.530       6884233.794
10 0 59500  36840.000000  0       -447116.903       -785783.441       6895047.164
10 0 59500  36900.000000  0       -856251.011       -580088.077       6876526.392
10 0 59500  36960.000000  0      -1259941.673       -368385.823       6828746.799
10 0 59500  37020.000000  0      -1656434.600       -151626.107       6751907.822
10 0 59500  37080.000000  0      -2044013.824         69204.868       6646332.293
10 0 59500  37140.000000  0      -2421009.234        293088.635       6512465.202
10 0 59500  37200.000000  0      -2785803.891        518979.178       6350871.930
10 0 59500  37260.000000  0      -3136841.091        745807.816       6162236.011
10 0 59500  37320.000000  0      -3472631.199        972488.280       5947356.425
10 0 59500  37380.000000  0      -3791758.203       1197921.929       5707144.342
10 0 59500  37440.000000  0      -4092885.920       1421003.094       5442619.397
10 0 59500  37500.000000  0      -4374763.869       1640624.532       5154905.470
10 0 59500  37560.000000  0      -4636232.731       1855682.973       4845225.959
10 0 59500  37620.000000  0      -4876229.377       2065084.721       4514898.613
10 0 59500  37680.000000  0      -5093791.445       2267751.252       4165329.918
10 0 59500  37740.000000  0      -5288061.430       2462624.774       3798009.067
10 0 59500  37800.000000  0      -5458290.266       2648673.759       3414501.555
10 0 59500  37860.000000  0      -5603840.423       2824898.404       3016442.433
10 0 59500  37920.000000  0      -5724188.467       2990335.978       2605529.195
10 0 59500  37980.000000  0      -5818927.099       3144066.028       2183514.382
10 0 59500  38040.000000  0      -5887766.631       3285215.465       1752197.859
10 0 59500  38100.000000  0      -5930535.824       3412963.410       1313418.795
10 0 59500  38160.000000  0      -5947182.082       3526545.746        869047.487
10 0 59500  38220.000000  0      -5937771.058       3625259.402        420977.135
10 0 59500  38280.000000  0      -5902485.791       3708466.389        -28884.543
10 0 59500  38340.000000  0      -5841625.141       3775597.449       -478623.777
10 0 59500  38400.000000  0      -5755601.749       3826155.428       -926329.106
10 0 59500  38460.000000  0      -5644939.458       3859718.330      -1370099.870
10 0 59500  38520.000000  0      -5510270.068       3875941.884      -1808054.615
10 0 59500  38580.000000  0      -5352329.573       3874561.714      -2238339.280
10 0 59500  38640.000000  0      -5171953.969       3855395.121      -2659135.160
10 0 59500  38700.000000  0      -4970074.622       3818342.494      -3068666.715
10 0 59500  38760.000000  0      -4747713.150       3763388.231      -3465209.120
10 0 59500  38820.000000  0      -4505975.944       3690601.245      -3847095.427
10 0 59500  38880.000000  0      -4246048.441       3600135.110      -4212723.416
10 0 59500  38940.000000  0      -3969189.068       3492227.804      -4560562.189
10 0 59500  39000.000000  0      -3676722.826       3367200.999      -4889158.320
10 0 59500  39060.000000  0      -3370034.773       3225458.966      -5197141.524
10 0 59500  39120.000000  0      -3050563.401       3067487.167      -5483230.026
10 0 59500  39180.000000  0      -2719793.782       2893850.475      -5746235.578
10 0 59500  39240.000000  0      -2379250.562       2705191.009      -5985068.040
10 0 59500  39300.000000  0      -2030490.853       2502225.596      -6198739.487
10 0 59500  39360.000000  0      -1675097.100       2285742.888      -6386367.834
10 0 59500  39420.000000  0      -1314669.993       2056600.208      -6547179.978
10 0 59500  39480.000000  0       -950821.426       1815720.165      -6680514.602
10 0 59500  39540.000000  0       -585167.408       1564086.901      -6785824.591
10 0 59500  39600.000000  0       -219321.076       1302742.061      -6862678.835
10 0 59500  39660.000000  0        145114.092       1032780.604      -6910763.733
10 0 59500  39720.000000  0        506551.069        755346.351      -6929884.378
10 0 59500  39780.000000  0        863426.035        471627.253      -6919965.266
10 0 59500  39840.000000  0       1214204.967        182850.419      -6881050.456
10 0 59500  39900.000000  0       1557389.982       -109723.039      -6813303.292
10 0 59500  39960.000000  0       1891525.470       -404803.294      -6717005.731
10 0 59500  40020.000000  0       2215204.047       -701077.270      -6592557.356
10 0 59500  40080.000000  0       2527072.382       -997214.314      -6440473.926
10 0 59500  40140.000000  0       2825836.731      -1291871.973      -6261385.381
10 0 59500  40200.000000  0       3110268.151      -1583701.811      -6056033.537
10 0 59500  40260.000000  0       3379207.516      -1871355.395      -5825269.457
10 0 59500  40320.000000  0       3631570.349      -2153490.438      -5570050.345
10 0 59500  40380.000000  0       3866351.294      -2428776.991      -5291435.888
10 0 59500  40440.000000  0       4082628.191      -2695903.652      -4990584.210
10 0 59500  40500.000000  0       4279565.802      -2953583.765      -4668747.399
10 0 59500  40560.000000  0       4456419.146      -3200561.550      -4327266.667
10 0 59500  40620.000000  0       4612536.516      -3435618.200      -3967567.160
10 0 59500  40680.000000  0       4747362.116      -3657577.913      -3591152.341
10 0 59500  40740.000000  0       4860438.274      -3865313.823      -3199598.004
10 0 59500  40800.000000  0       4951407.231      -4057753.800      -2794545.882
10 0 59500  40860.000000  0       5020012.425      -4233886.010      -2377696.904
10 0 59500  40920.000000  0       5066099.348      -4392764.266      -1950804.224
10 0 59500  40980.000000  0       5089615.966      -4533513.198      -1515665.903
10 0 59500  41040.000000  0       5090612.585      -4655333.115      -1074117.304
10 0 59500  41100.000000  0       5069241.234      -4757504.519       -628023.299
10 0 59500  41160.000000  0       5025754.549      -4839392.314       -179270.287
10 0 59500  41220.000000  0       4960504.153      -4900449.582        270241.948
10 0 59500  41280.000000  0       4873938.612      -4940220.963        718608.449
10 0 59500  41340.000000  0       4766600.896      -4958345.607       1163927.418
10 0 59500  41400.000000  0       4639125.304      -4954559.643       1604308.535
10 0 59500  41460.000000  0       4492233.967      -4928698.204       2037881.168
10 0 59500  41520.000000  0       4326733.007      -4880696.982       2462802.533
10 0 59500  41580.000000  0       4143508.264      -4810593.298       2877265.769
10 0 59500  41640.000000  0       3943520.639      -4718526.659       3279507.851
10 0 59500  41700.000000  0       3727801.058      -4604738.815       3667817.296
10 0 59500  41760.000000  0       3497445.133      -4469573.295       4040541.601
10 0 59500  41820.000000  0       3253607.560      -4313474.437       4396094.421
10 0 59500  41880.000000  0       2997496.272      -4136985.920       4732962.429
10 0 59500  41940.000000  0       2730366.368      -3940748.803       5049711.799
10 0 59500  42000.000000  0       2453513.903      -3725499.179       5344994.337
10 0 59500  42060.000000  0       2168269.501      -3492065.298       5617553.304
10 0 59500  42120.000000  0       1875991.807      -3241364.204       5866228.752
10 0 59500  42180.000000  0       1578060.911      -2974397.974       6089962.339
10 0 59500  42240.000000  0       1275871.770      -2692249.619       6287801.752
10 0 59500  42300.000000  0        970827.593      -2396078.589       6458904.711
10 0 59500  42360.000000  0        664333.218      -2087115.877       6602542.450
10 0 59500  42420.000000  0        357788.593      -1766658.835       6718102.690
10 0 59500  42480.000000  0         52582.386      -1436065.678       6805092.227
10 0 59500  42540.000000  0       -249914.371      -1096749.589       6863139.031
10 0 59500  42600.000000  0       -548354.459       -750172.609       6891993.735
10 0 59500  42660.000000  0       -841420.507       -397839.315       6891530.736
10 0 59500  42720.000000  0      -1127830.882        -41290.224       6861748.755
10 0 59500  42780.000000  0      -1406345.348        317904.995       6802770.887
10 0 59500  42840.000000  0      -1675770.483        678154.483       6714844.145
10 0 59500  42900.000000  0      -1934964.864       1037851.288       6598338.517
10 0 59500  42960.000000  0      -2182844.012       1395380.591       6453745.511
10 0 59500  43020.000000  0      -2418385.009       1749127.014       6281676.179
10 0 59500  43080.000000  0      -2640630.815       2097482.002       6082858.700
10 0 59500  43140.000000  0      -2848694.285       2438851.259       5858135.469
99
